{"type":"FeatureCollection","name":"Household data-pay nodes (concept)","note":"","features":[{"type":"Feature","properties":{"name":"Household data-pay cluster \u00b7 Belleair Shore","layer":"datapay","households_demo":40,"note":"Opt-in civic data dividend concept. DEMO counts only. Households would be paid for lawful, consented data \u2014 not a live program."},"geometry":{"type":"Point","coordinates":[-82.84208,27.913]}},{"type":"Feature","properties":{"name":"Household data-pay cluster \u00b7 North Redington Beach","layer":"datapay","households_demo":47,"note":"Opt-in civic data dividend concept. DEMO counts only. Households would be paid for lawful, consented data \u2014 not a live program."},"geometry":{"type":"Point","coordinates":[-82.82063,27.81776]}},{"type":"Feature","properties":{"name":"Household data-pay cluster \u00b7 Indian Shores","layer":"datapay","households_demo":54,"note":"Opt-in civic data dividend concept. DEMO counts only. Households would be paid for lawful, consented data \u2014 not a live program."},"geometry":{"type":"Point","coordinates":[-82.83936,27.85023]}},{"type":"Feature","properties":{"name":"Household data-pay cluster \u00b7 Redington Beach","layer":"datapay","households_demo":61,"note":"Opt-in civic data dividend concept. DEMO counts only. Households would be paid for lawful, consented data \u2014 not a live program."},"geometry":{"type":"Point","coordinates":[-82.80826,27.80793]}},{"type":"Feature","properties":{"name":"Household data-pay cluster \u00b7 Redington Shores","layer":"datapay","households_demo":68,"note":"Opt-in civic data dividend concept. DEMO counts only. Households would be paid for lawful, consented data \u2014 not a live program."},"geometry":{"type":"Point","coordinates":[-82.82589,27.82665]}},{"type":"Feature","properties":{"name":"Household data-pay cluster \u00b7 Belleair Beach","layer":"datapay","households_demo":75,"note":"Opt-in civic data dividend concept. DEMO counts only. Households would be paid for lawful, consented data \u2014 not a live program."},"geometry":{"type":"Point","coordinates":[-82.83612,27.92088]}},{"type":"Feature","properties":{"name":"Household data-pay cluster \u00b7 Belleair Bluffs","layer":"datapay","households_demo":82,"note":"Opt-in civic data dividend concept. DEMO counts only. Households would be paid for lawful, consented data \u2014 not a live program."},"geometry":{"type":"Point","coordinates":[-82.81314,27.91571]}},{"type":"Feature","properties":{"name":"Household data-pay cluster \u00b7 South Pasadena","layer":"datapay","households_demo":89,"note":"Opt-in civic data dividend concept. DEMO counts only. Households would be paid for lawful, consented data \u2014 not a live program."},"geometry":{"type":"Point","coordinates":[-82.73501,27.7547]}},{"type":"Feature","properties":{"name":"Household data-pay cluster \u00b7 Kenneth City","layer":"datapay","households_demo":96,"note":"Opt-in civic data dividend concept. DEMO counts only. Households would be paid for lawful, consented data \u2014 not a live program."},"geometry":{"type":"Point","coordinates":[-82.71377,27.81124]}},{"type":"Feature","properties":{"name":"Household data-pay cluster \u00b7 Indian Rocks Beach","layer":"datapay","households_demo":103,"note":"Opt-in civic data dividend concept. DEMO counts only. Households would be paid for lawful, consented data \u2014 not a live program."},"geometry":{"type":"Point","coordinates":[-82.84309,27.88884]}},{"type":"Feature","properties":{"name":"Household data-pay cluster \u00b7 Madeira Beach","layer":"datapay","households_demo":110,"note":"Opt-in civic data dividend concept. DEMO counts only. Households would be paid for lawful, consented data \u2014 not a live program."},"geometry":{"type":"Point","coordinates":[-82.78945,27.80084]}},{"type":"Feature","properties":{"name":"Household data-pay cluster \u00b7 Treasure Island","layer":"datapay","households_demo":117,"note":"Opt-in civic data dividend concept. DEMO counts only. Households would be paid for lawful, consented data \u2014 not a live program."},"geometry":{"type":"Point","coordinates":[-82.76078,27.75893]}},{"type":"Feature","properties":{"name":"Household data-pay cluster \u00b7 Belleair","layer":"datapay","households_demo":44,"note":"Opt-in civic data dividend concept. DEMO counts only. Households would be paid for lawful, consented data \u2014 not a live program."},"geometry":{"type":"Point","coordinates":[-82.80401,27.93147]}},{"type":"Feature","properties":{"name":"Household data-pay cluster \u00b7 St. Pete Beach","layer":"datapay","households_demo":51,"note":"Opt-in civic data dividend concept. DEMO counts only. Households would be paid for lawful, consented data \u2014 not a live program."},"geometry":{"type":"Point","coordinates":[-82.7427,27.73236]}},{"type":"Feature","properties":{"name":"Household data-pay cluster \u00b7 Gulfport","layer":"datapay","households_demo":58,"note":"Opt-in civic data dividend concept. DEMO counts only. Households would be paid for lawful, consented data \u2014 not a live program."},"geometry":{"type":"Point","coordinates":[-82.70949,27.74905]}},{"type":"Feature","properties":{"name":"Household data-pay cluster \u00b7 Safety Harbor","layer":"datapay","households_demo":65,"note":"Opt-in civic data dividend concept. DEMO counts only. Households would be paid for lawful, consented data \u2014 not a live program."},"geometry":{"type":"Point","coordinates":[-82.69059,28.00208]}},{"type":"Feature","properties":{"name":"Household data-pay cluster \u00b7 Seminole","layer":"datapay","households_demo":72,"note":"Opt-in civic data dividend concept. DEMO counts only. Households would be paid for lawful, consented data \u2014 not a live program."},"geometry":{"type":"Point","coordinates":[-82.77735,27.83868]}},{"type":"Feature","properties":{"name":"Household data-pay cluster \u00b7 Tarpon Springs","layer":"datapay","households_demo":79,"note":"Opt-in civic data dividend concept. DEMO counts only. Households would be paid for lawful, consented data \u2014 not a live program."},"geometry":{"type":"Point","coordinates":[-82.74635,28.14767]}},{"type":"Feature","properties":{"name":"Household data-pay cluster \u00b7 Oldsmar","layer":"datapay","households_demo":86,"note":"Opt-in civic data dividend concept. DEMO counts only. Households would be paid for lawful, consented data \u2014 not a live program."},"geometry":{"type":"Point","coordinates":[-82.67433,28.03784]}},{"type":"Feature","properties":{"name":"Household data-pay cluster \u00b7 Dunedin","layer":"datapay","households_demo":93,"note":"Opt-in civic data dividend concept. DEMO counts only. Households would be paid for lawful, consented data \u2014 not a live program."},"geometry":{"type":"Point","coordinates":[-82.7622,28.02861]}},{"type":"Feature","properties":{"name":"Household data-pay cluster \u00b7 Pinellas Park","layer":"datapay","households_demo":100,"note":"Opt-in civic data dividend concept. DEMO counts only. Households would be paid for lawful, consented data \u2014 not a live program."},"geometry":{"type":"Point","coordinates":[-82.71553,27.86083]}},{"type":"Feature","properties":{"name":"Household data-pay cluster \u00b7 Largo","layer":"datapay","households_demo":107,"note":"Opt-in civic data dividend concept. DEMO counts only. Households would be paid for lawful, consented data \u2014 not a live program."},"geometry":{"type":"Point","coordinates":[-82.74911,27.90916]}},{"type":"Feature","properties":{"name":"Household data-pay cluster \u00b7 Clearwater","layer":"datapay","households_demo":114,"note":"Opt-in civic data dividend concept. DEMO counts only. Households would be paid for lawful, consented data \u2014 not a live program."},"geometry":{"type":"Point","coordinates":[-82.74063,27.9749]}},{"type":"Feature","properties":{"name":"Household data-pay cluster \u00b7 St. Petersburg","layer":"datapay","households_demo":41,"note":"Opt-in civic data dividend concept. DEMO counts only. Households would be paid for lawful, consented data \u2014 not a live program."},"geometry":{"type":"Point","coordinates":[-82.67011,27.81149]}},{"type":"Feature","properties":{"name":"Unincorporated data-pay cluster \u00b7 Palm Harbor","layer":"datapay","place":"Palm Harbor"},"geometry":{"type":"Point","coordinates":[-82.76,28.078]}},{"type":"Feature","properties":{"name":"Unincorporated data-pay cluster \u00b7 Lealman","layer":"datapay","place":"Lealman"},"geometry":{"type":"Point","coordinates":[-82.68,27.82]}},{"type":"Feature","properties":{"name":"Unincorporated data-pay cluster \u00b7 East Lake","layer":"datapay","place":"East Lake"},"geometry":{"type":"Point","coordinates":[-82.7,28.1]}},{"type":"Feature","properties":{"name":"Unincorporated data-pay cluster \u00b7 Highpoint","layer":"datapay","place":"Highpoint"},"geometry":{"type":"Point","coordinates":[-82.71,27.91]}}]}