{"type":"FeatureCollection","name":"Drone delivery corridors (concept)","note":"","features":[{"type":"Feature","properties":{"name":"US 19 logistics corridor (concept)","alt_ft":250,"layer":"drone","note":"Conceptual BVLOS logistics spine. Not an FAA-approved route."},"geometry":{"type":"LineString","coordinates":[[-82.73,28.15],[-82.73,27.97],[-82.73,27.84],[-82.68,27.73]]}},{"type":"Feature","properties":{"name":"I-275 / bay-crossing medical drone (concept)","alt_ft":300,"layer":"drone"},"geometry":{"type":"LineString","coordinates":[[-82.58,27.93],[-82.64,27.89],[-82.65,27.77],[-82.64,27.764]]}},{"type":"Feature","properties":{"name":"Barrier-island last-mile (concept)","alt_ft":200,"layer":"drone"},"geometry":{"type":"LineString","coordinates":[[-82.83,27.98],[-82.84,27.9],[-82.8,27.8],[-82.75,27.73]]}},{"type":"Feature","properties":{"name":"St. Pete downtown hospital hop (concept)","alt_ft":180,"layer":"drone"},"geometry":{"type":"LineString","coordinates":[[-82.68,27.8],[-82.65,27.77],[-82.64,27.764]]}}]}