{"type":"FeatureCollection","name":"Flying-car / eVTOL lanes (concept)","note":"","features":[{"type":"Feature","properties":{"name":"Tampa Bay eVTOL causeway lane (concept)","alt_ft":1500,"layer":"flying","note":"Urban air mobility concept only. No certified passenger eVTOL service operates in Pinellas as of 2026 research for this demo."},"geometry":{"type":"LineString","coordinates":[[-82.55,27.97],[-82.62,27.97],[-82.7,27.96],[-82.8,27.97],[-82.83,27.978]]}},{"type":"Feature","properties":{"name":"Gulf coastal flying-car scenic (concept)","alt_ft":1200,"layer":"flying"},"geometry":{"type":"LineString","coordinates":[[-82.85,28.12],[-82.85,27.98],[-82.86,27.85],[-82.82,27.73],[-82.74,27.68]]}},{"type":"Feature","properties":{"name":"County north-south UAM trunk (concept)","alt_ft":1800,"layer":"flying"},"geometry":{"type":"LineString","coordinates":[[-82.74,28.17],[-82.72,28.0],[-82.68,27.85],[-82.64,27.77],[-82.63,27.67]]}},{"type":"Feature","properties":{"name":"PIE vertiport concept (St. Pete\u2013Clearwater Intl.)","layer":"flying"},"geometry":{"type":"Point","coordinates":[-82.687,27.91]}},{"type":"Feature","properties":{"name":"Downtown St. Pete vertiport concept","layer":"flying"},"geometry":{"type":"Point","coordinates":[-82.635,27.773]}},{"type":"Feature","properties":{"name":"Clearwater Beach vertiport concept","layer":"flying"},"geometry":{"type":"Point","coordinates":[-82.83,27.977]}},{"type":"Feature","properties":{"name":"Tarpon Springs vertiport concept","layer":"flying"},"geometry":{"type":"Point","coordinates":[-82.753,28.155]}}]}