{"type":"FeatureCollection","name":"IoT sensor mesh (demo)","note":"","features":[{"type":"Feature","properties":{"name":"flood sensor \u00b7 Belleair Shore","kind":"flood","place":"Belleair Shore","layer":"iot","status":"demo-online","note":"Conceptual IoT mesh. Not a live county feed."},"geometry":{"type":"Point","coordinates":[-82.84273,27.9065]}},{"type":"Feature","properties":{"name":"traffic sensor \u00b7 Belleair Shore","kind":"traffic","place":"Belleair Shore","layer":"iot","status":"demo-online","note":"Conceptual IoT mesh. Not a live county feed."},"geometry":{"type":"Point","coordinates":[-82.85148,27.91046]}},{"type":"Feature","properties":{"name":"noise sensor \u00b7 North Redington Beach","kind":"noise","place":"North Redington Beach","layer":"iot","status":"demo-online","note":"Conceptual IoT mesh. Not a live county feed."},"geometry":{"type":"Point","coordinates":[-82.81895,27.82429]}},{"type":"Feature","properties":{"name":"water-pressure sensor \u00b7 North Redington Beach","kind":"water-pressure","place":"North Redington Beach","layer":"iot","status":"demo-online","note":"Conceptual IoT mesh. Not a live county feed."},"geometry":{"type":"Point","coordinates":[-82.81522,27.8125]}},{"type":"Feature","properties":{"name":"heat sensor \u00b7 North Redington Beach","kind":"heat","place":"North Redington Beach","layer":"iot","status":"demo-online","note":"Conceptual IoT mesh. Not a live county feed."},"geometry":{"type":"Point","coordinates":[-82.8265,27.81136]}},{"type":"Feature","properties":{"name":"air sensor \u00b7 North Redington Beach","kind":"air","place":"North Redington Beach","layer":"iot","status":"demo-online","note":"Conceptual IoT mesh. Not a live county feed."},"geometry":{"type":"Point","coordinates":[-82.83138,27.82087]}},{"type":"Feature","properties":{"name":"flood sensor \u00b7 Indian Shores","kind":"flood","place":"Indian Shores","layer":"iot","status":"demo-online","note":"Conceptual IoT mesh. Not a live county feed."},"geometry":{"type":"Point","coordinates":[-82.85472,27.84721]}},{"type":"Feature","properties":{"name":"traffic sensor \u00b7 Indian Shores","kind":"traffic","place":"Indian Shores","layer":"iot","status":"demo-online","note":"Conceptual IoT mesh. Not a live county feed."},"geometry":{"type":"Point","coordinates":[-82.83976,27.85413]}},{"type":"Feature","properties":{"name":"noise sensor \u00b7 Redington Beach","kind":"noise","place":"Redington Beach","layer":"iot","status":"demo-online","note":"Conceptual IoT mesh. Not a live county feed."},"geometry":{"type":"Point","coordinates":[-82.81897,27.81272]}},{"type":"Feature","properties":{"name":"water-pressure sensor \u00b7 Redington Beach","kind":"water-pressure","place":"Redington Beach","layer":"iot","status":"demo-online","note":"Conceptual IoT mesh. Not a live county feed."},"geometry":{"type":"Point","coordinates":[-82.80483,27.80106]}},{"type":"Feature","properties":{"name":"heat sensor \u00b7 Redington Beach","kind":"heat","place":"Redington Beach","layer":"iot","status":"demo-online","note":"Conceptual IoT mesh. Not a live county feed."},"geometry":{"type":"Point","coordinates":[-82.80492,27.81489]}},{"type":"Feature","properties":{"name":"air sensor \u00b7 Redington Beach","kind":"air","place":"Redington Beach","layer":"iot","status":"demo-online","note":"Conceptual IoT mesh. Not a live county feed."},"geometry":{"type":"Point","coordinates":[-82.81609,27.80404]}},{"type":"Feature","properties":{"name":"flood sensor \u00b7 Redington Shores","kind":"flood","place":"Redington Shores","layer":"iot","status":"demo-online","note":"Conceptual IoT mesh. Not a live county feed."},"geometry":{"type":"Point","coordinates":[-82.81892,27.82638]}},{"type":"Feature","properties":{"name":"traffic sensor \u00b7 Redington Shores","kind":"traffic","place":"Redington Shores","layer":"iot","status":"demo-online","note":"Conceptual IoT mesh. Not a live county feed."},"geometry":{"type":"Point","coordinates":[-82.83966,27.82158]}},{"type":"Feature","properties":{"name":"noise sensor \u00b7 Belleair Beach","kind":"noise","place":"Belleair Beach","layer":"iot","status":"demo-online","note":"Conceptual IoT mesh. Not a live county feed."},"geometry":{"type":"Point","coordinates":[-82.83178,27.92595]}},{"type":"Feature","properties":{"name":"water-pressure sensor \u00b7 Belleair Beach","kind":"water-pressure","place":"Belleair Beach","layer":"iot","status":"demo-online","note":"Conceptual IoT mesh. Not a live county feed."},"geometry":{"type":"Point","coordinates":[-82.83275,27.92847]}},{"type":"Feature","properties":{"name":"heat sensor \u00b7 Belleair Beach","kind":"heat","place":"Belleair Beach","layer":"iot","status":"demo-online","note":"Conceptual IoT mesh. Not a live county feed."},"geometry":{"type":"Point","coordinates":[-82.83925,27.93334]}},{"type":"Feature","properties":{"name":"air sensor \u00b7 Belleair Beach","kind":"air","place":"Belleair Beach","layer":"iot","status":"demo-online","note":"Conceptual IoT mesh. Not a live county feed."},"geometry":{"type":"Point","coordinates":[-82.84304,27.92492]}},{"type":"Feature","properties":{"name":"flood sensor \u00b7 Belleair Bluffs","kind":"flood","place":"Belleair Bluffs","layer":"iot","status":"demo-online","note":"Conceptual IoT mesh. Not a live county feed."},"geometry":{"type":"Point","coordinates":[-82.80923,27.92108]}},{"type":"Feature","properties":{"name":"traffic sensor \u00b7 Belleair Bluffs","kind":"traffic","place":"Belleair Bluffs","layer":"iot","status":"demo-online","note":"Conceptual IoT mesh. Not a live county feed."},"geometry":{"type":"Point","coordinates":[-82.80846,27.92026]}},{"type":"Feature","properties":{"name":"noise sensor \u00b7 South Pasadena","kind":"noise","place":"South Pasadena","layer":"iot","status":"demo-online","note":"Conceptual IoT mesh. Not a live county feed."},"geometry":{"type":"Point","coordinates":[-82.7341,27.74862]}},{"type":"Feature","properties":{"name":"water-pressure sensor \u00b7 South Pasadena","kind":"water-pressure","place":"South Pasadena","layer":"iot","status":"demo-online","note":"Conceptual IoT mesh. Not a live county feed."},"geometry":{"type":"Point","coordinates":[-82.74554,27.75349]}},{"type":"Feature","properties":{"name":"heat sensor \u00b7 Kenneth City","kind":"heat","place":"Kenneth City","layer":"iot","status":"demo-online","note":"Conceptual IoT mesh. Not a live county feed."},"geometry":{"type":"Point","coordinates":[-82.72785,27.8089]}},{"type":"Feature","properties":{"name":"air sensor \u00b7 Kenneth City","kind":"air","place":"Kenneth City","layer":"iot","status":"demo-online","note":"Conceptual IoT mesh. Not a live county feed."},"geometry":{"type":"Point","coordinates":[-82.72735,27.8098]}},{"type":"Feature","properties":{"name":"flood sensor \u00b7 Indian Rocks Beach","kind":"flood","place":"Indian Rocks Beach","layer":"iot","status":"demo-online","note":"Conceptual IoT mesh. Not a live county feed."},"geometry":{"type":"Point","coordinates":[-82.84383,27.88914]}},{"type":"Feature","properties":{"name":"traffic sensor \u00b7 Indian Rocks Beach","kind":"traffic","place":"Indian Rocks Beach","layer":"iot","status":"demo-online","note":"Conceptual IoT mesh. Not a live county feed."},"geometry":{"type":"Point","coordinates":[-82.85021,27.88603]}},{"type":"Feature","properties":{"name":"noise sensor \u00b7 Indian Rocks Beach","kind":"noise","place":"Indian Rocks Beach","layer":"iot","status":"demo-online","note":"Conceptual IoT mesh. Not a live county feed."},"geometry":{"type":"Point","coordinates":[-82.85268,27.90057]}},{"type":"Feature","properties":{"name":"water-pressure sensor \u00b7 Indian Rocks Beach","kind":"water-pressure","place":"Indian Rocks Beach","layer":"iot","status":"demo-online","note":"Conceptual IoT mesh. Not a live county feed."},"geometry":{"type":"Point","coordinates":[-82.84354,27.89402]}},{"type":"Feature","properties":{"name":"heat sensor \u00b7 Madeira Beach","kind":"heat","place":"Madeira Beach","layer":"iot","status":"demo-online","note":"Conceptual IoT mesh. Not a live county feed."},"geometry":{"type":"Point","coordinates":[-82.80134,27.80842]}},{"type":"Feature","properties":{"name":"air sensor \u00b7 Madeira Beach","kind":"air","place":"Madeira Beach","layer":"iot","status":"demo-online","note":"Conceptual IoT mesh. Not a live county feed."},"geometry":{"type":"Point","coordinates":[-82.80153,27.80143]}},{"type":"Feature","properties":{"name":"flood sensor \u00b7 Madeira Beach","kind":"flood","place":"Madeira Beach","layer":"iot","status":"demo-online","note":"Conceptual IoT mesh. Not a live county feed."},"geometry":{"type":"Point","coordinates":[-82.7817,27.80664]}},{"type":"Feature","properties":{"name":"traffic sensor \u00b7 Madeira Beach","kind":"traffic","place":"Madeira Beach","layer":"iot","status":"demo-online","note":"Conceptual IoT mesh. Not a live county feed."},"geometry":{"type":"Point","coordinates":[-82.79208,27.80753]}},{"type":"Feature","properties":{"name":"noise sensor \u00b7 Treasure Island","kind":"noise","place":"Treasure Island","layer":"iot","status":"demo-online","note":"Conceptual IoT mesh. Not a live county feed."},"geometry":{"type":"Point","coordinates":[-82.75655,27.76745]}},{"type":"Feature","properties":{"name":"water-pressure sensor \u00b7 Treasure Island","kind":"water-pressure","place":"Treasure Island","layer":"iot","status":"demo-online","note":"Conceptual IoT mesh. Not a live county feed."},"geometry":{"type":"Point","coordinates":[-82.77128,27.75257]}},{"type":"Feature","properties":{"name":"heat sensor \u00b7 Belleair","kind":"heat","place":"Belleair","layer":"iot","status":"demo-online","note":"Conceptual IoT mesh. Not a live county feed."},"geometry":{"type":"Point","coordinates":[-82.81244,27.92982]}},{"type":"Feature","properties":{"name":"air sensor \u00b7 Belleair","kind":"air","place":"Belleair","layer":"iot","status":"demo-online","note":"Conceptual IoT mesh. Not a live county feed."},"geometry":{"type":"Point","coordinates":[-82.81495,27.94333]}},{"type":"Feature","properties":{"name":"flood sensor \u00b7 St. Pete Beach","kind":"flood","place":"St. Pete Beach","layer":"iot","status":"demo-online","note":"Conceptual IoT mesh. Not a live county feed."},"geometry":{"type":"Point","coordinates":[-82.73767,27.73165]}},{"type":"Feature","properties":{"name":"traffic sensor \u00b7 St. Pete Beach","kind":"traffic","place":"St. Pete Beach","layer":"iot","status":"demo-online","note":"Conceptual IoT mesh. Not a live county feed."},"geometry":{"type":"Point","coordinates":[-82.74297,27.73327]}},{"type":"Feature","properties":{"name":"noise sensor \u00b7 St. Pete Beach","kind":"noise","place":"St. Pete Beach","layer":"iot","status":"demo-online","note":"Conceptual IoT mesh. Not a live county feed."},"geometry":{"type":"Point","coordinates":[-82.73675,27.73454]}},{"type":"Feature","properties":{"name":"water-pressure sensor \u00b7 St. Pete Beach","kind":"water-pressure","place":"St. Pete Beach","layer":"iot","status":"demo-online","note":"Conceptual IoT mesh. Not a live county feed."},"geometry":{"type":"Point","coordinates":[-82.75234,27.73029]}},{"type":"Feature","properties":{"name":"heat sensor \u00b7 Gulfport","kind":"heat","place":"Gulfport","layer":"iot","status":"demo-online","note":"Conceptual IoT mesh. Not a live county feed."},"geometry":{"type":"Point","coordinates":[-82.71202,27.7473]}},{"type":"Feature","properties":{"name":"air sensor \u00b7 Gulfport","kind":"air","place":"Gulfport","layer":"iot","status":"demo-online","note":"Conceptual IoT mesh. Not a live county feed."},"geometry":{"type":"Point","coordinates":[-82.71146,27.76001]}},{"type":"Feature","properties":{"name":"flood sensor \u00b7 Safety Harbor","kind":"flood","place":"Safety Harbor","layer":"iot","status":"demo-online","note":"Conceptual IoT mesh. Not a live county feed."},"geometry":{"type":"Point","coordinates":[-82.697,27.99947]}},{"type":"Feature","properties":{"name":"traffic sensor \u00b7 Safety Harbor","kind":"traffic","place":"Safety Harbor","layer":"iot","status":"demo-online","note":"Conceptual IoT mesh. Not a live county feed."},"geometry":{"type":"Point","coordinates":[-82.68265,28.00527]}},{"type":"Feature","properties":{"name":"noise sensor \u00b7 Seminole","kind":"noise","place":"Seminole","layer":"iot","status":"demo-online","note":"Conceptual IoT mesh. Not a live county feed."},"geometry":{"type":"Point","coordinates":[-82.79117,27.83262]}},{"type":"Feature","properties":{"name":"water-pressure sensor \u00b7 Seminole","kind":"water-pressure","place":"Seminole","layer":"iot","status":"demo-online","note":"Conceptual IoT mesh. Not a live county feed."},"geometry":{"type":"Point","coordinates":[-82.79072,27.84423]}},{"type":"Feature","properties":{"name":"heat sensor \u00b7 Tarpon Springs","kind":"heat","place":"Tarpon Springs","layer":"iot","status":"demo-online","note":"Conceptual IoT mesh. Not a live county feed."},"geometry":{"type":"Point","coordinates":[-82.74334,28.14911]}},{"type":"Feature","properties":{"name":"air sensor \u00b7 Tarpon Springs","kind":"air","place":"Tarpon Springs","layer":"iot","status":"demo-online","note":"Conceptual IoT mesh. Not a live county feed."},"geometry":{"type":"Point","coordinates":[-82.76083,28.1483]}},{"type":"Feature","properties":{"name":"flood sensor \u00b7 Oldsmar","kind":"flood","place":"Oldsmar","layer":"iot","status":"demo-online","note":"Conceptual IoT mesh. Not a live county feed."},"geometry":{"type":"Point","coordinates":[-82.66642,28.04142]}},{"type":"Feature","properties":{"name":"traffic sensor \u00b7 Oldsmar","kind":"traffic","place":"Oldsmar","layer":"iot","status":"demo-online","note":"Conceptual IoT mesh. Not a live county feed."},"geometry":{"type":"Point","coordinates":[-82.66702,28.04806]}},{"type":"Feature","properties":{"name":"noise sensor \u00b7 Dunedin","kind":"noise","place":"Dunedin","layer":"iot","status":"demo-online","note":"Conceptual IoT mesh. Not a live county feed."},"geometry":{"type":"Point","coordinates":[-82.77792,28.03602]}},{"type":"Feature","properties":{"name":"water-pressure sensor \u00b7 Dunedin","kind":"water-pressure","place":"Dunedin","layer":"iot","status":"demo-online","note":"Conceptual IoT mesh. Not a live county feed."},"geometry":{"type":"Point","coordinates":[-82.76184,28.03235]}},{"type":"Feature","properties":{"name":"heat sensor \u00b7 Pinellas Park","kind":"heat","place":"Pinellas Park","layer":"iot","status":"demo-online","note":"Conceptual IoT mesh. Not a live county feed."},"geometry":{"type":"Point","coordinates":[-82.72513,27.86665]}},{"type":"Feature","properties":{"name":"air sensor \u00b7 Pinellas Park","kind":"air","place":"Pinellas Park","layer":"iot","status":"demo-online","note":"Conceptual IoT mesh. Not a live county feed."},"geometry":{"type":"Point","coordinates":[-82.72885,27.86253]}},{"type":"Feature","properties":{"name":"flood sensor \u00b7 Largo","kind":"flood","place":"Largo","layer":"iot","status":"demo-online","note":"Conceptual IoT mesh. Not a live county feed."},"geometry":{"type":"Point","coordinates":[-82.75422,27.92124]}},{"type":"Feature","properties":{"name":"traffic sensor \u00b7 Largo","kind":"traffic","place":"Largo","layer":"iot","status":"demo-online","note":"Conceptual IoT mesh. Not a live county feed."},"geometry":{"type":"Point","coordinates":[-82.74409,27.90743]}},{"type":"Feature","properties":{"name":"noise sensor \u00b7 Largo","kind":"noise","place":"Largo","layer":"iot","status":"demo-online","note":"Conceptual IoT mesh. Not a live county feed."},"geometry":{"type":"Point","coordinates":[-82.7531,27.90573]}},{"type":"Feature","properties":{"name":"water-pressure sensor \u00b7 Largo","kind":"water-pressure","place":"Largo","layer":"iot","status":"demo-online","note":"Conceptual IoT mesh. Not a live county feed."},"geometry":{"type":"Point","coordinates":[-82.74321,27.91957]}},{"type":"Feature","properties":{"name":"heat sensor \u00b7 Clearwater","kind":"heat","place":"Clearwater","layer":"iot","status":"demo-online","note":"Conceptual IoT mesh. Not a live county feed."},"geometry":{"type":"Point","coordinates":[-82.74947,27.98068]}},{"type":"Feature","properties":{"name":"air sensor \u00b7 Clearwater","kind":"air","place":"Clearwater","layer":"iot","status":"demo-online","note":"Conceptual IoT mesh. Not a live county feed."},"geometry":{"type":"Point","coordinates":[-82.74201,27.97096]}},{"type":"Feature","properties":{"name":"flood sensor \u00b7 Clearwater","kind":"flood","place":"Clearwater","layer":"iot","status":"demo-online","note":"Conceptual IoT mesh. Not a live county feed."},"geometry":{"type":"Point","coordinates":[-82.73833,27.97869]}},{"type":"Feature","properties":{"name":"traffic sensor \u00b7 Clearwater","kind":"traffic","place":"Clearwater","layer":"iot","status":"demo-online","note":"Conceptual IoT mesh. Not a live county feed."},"geometry":{"type":"Point","coordinates":[-82.73794,27.97851]}},{"type":"Feature","properties":{"name":"noise sensor \u00b7 St. Petersburg","kind":"noise","place":"St. Petersburg","layer":"iot","status":"demo-online","note":"Conceptual IoT mesh. Not a live county feed."},"geometry":{"type":"Point","coordinates":[-82.6861,27.81097]}},{"type":"Feature","properties":{"name":"water-pressure sensor \u00b7 St. Petersburg","kind":"water-pressure","place":"St. Petersburg","layer":"iot","status":"demo-online","note":"Conceptual IoT mesh. Not a live county feed."},"geometry":{"type":"Point","coordinates":[-82.68564,27.82307]}},{"type":"Feature","properties":{"name":"heat sensor \u00b7 St. Petersburg","kind":"heat","place":"St. Petersburg","layer":"iot","status":"demo-online","note":"Conceptual IoT mesh. Not a live county feed."},"geometry":{"type":"Point","coordinates":[-82.66502,27.82112]}},{"type":"Feature","properties":{"name":"air sensor \u00b7 St. Petersburg","kind":"air","place":"St. Petersburg","layer":"iot","status":"demo-online","note":"Conceptual IoT mesh. Not a live county feed."},"geometry":{"type":"Point","coordinates":[-82.67873,27.80565]}},{"type":"Feature","properties":{"name":"flood sensor \u00b7 Clearwater Beach","kind":"flood","place":"Clearwater Beach","layer":"iot","status":"demo-online","note":"Conceptual IoT mesh. Not a live county feed."},"geometry":{"type":"Point","coordinates":[-82.81793,27.98694]}},{"type":"Feature","properties":{"name":"traffic sensor \u00b7 Clearwater Beach","kind":"traffic","place":"Clearwater Beach","layer":"iot","status":"demo-online","note":"Conceptual IoT mesh. Not a live county feed."},"geometry":{"type":"Point","coordinates":[-82.83694,27.97772]}},{"type":"Feature","properties":{"name":"noise sensor \u00b7 Clearwater Beach","kind":"noise","place":"Clearwater Beach","layer":"iot","status":"demo-online","note":"Conceptual IoT mesh. Not a live county feed."},"geometry":{"type":"Point","coordinates":[-82.83734,27.98321]}},{"type":"Feature","properties":{"name":"water-pressure sensor \u00b7 Clearwater Beach","kind":"water-pressure","place":"Clearwater Beach","layer":"iot","status":"demo-online","note":"Conceptual IoT mesh. Not a live county feed."},"geometry":{"type":"Point","coordinates":[-82.82062,27.97057]}},{"type":"Feature","properties":{"name":"heat sensor \u00b7 Bayfront","kind":"heat","place":"Bayfront","layer":"iot","status":"demo-online","note":"Conceptual IoT mesh. Not a live county feed."},"geometry":{"type":"Point","coordinates":[-82.63259,27.771]}},{"type":"Feature","properties":{"name":"air sensor \u00b7 Bayfront","kind":"air","place":"Bayfront","layer":"iot","status":"demo-online","note":"Conceptual IoT mesh. Not a live county feed."},"geometry":{"type":"Point","coordinates":[-82.63764,27.77745]}},{"type":"Feature","properties":{"name":"flood sensor \u00b7 Gandy / Gateway","kind":"flood","place":"Gandy / Gateway","layer":"iot","status":"demo-online","note":"Conceptual IoT mesh. Not a live county feed."},"geometry":{"type":"Point","coordinates":[-82.63184,27.88424]}},{"type":"Feature","properties":{"name":"traffic sensor \u00b7 Gandy / Gateway","kind":"traffic","place":"Gandy / Gateway","layer":"iot","status":"demo-online","note":"Conceptual IoT mesh. Not a live county feed."},"geometry":{"type":"Point","coordinates":[-82.62906,27.8946]}},{"type":"Feature","properties":{"name":"noise sensor \u00b7 South Cross Bayou","kind":"noise","place":"South Cross Bayou","layer":"iot","status":"demo-online","note":"Conceptual IoT mesh. Not a live county feed."},"geometry":{"type":"Point","coordinates":[-82.76217,27.86823]}},{"type":"Feature","properties":{"name":"water-pressure sensor \u00b7 South Cross Bayou","kind":"water-pressure","place":"South Cross Bayou","layer":"iot","status":"demo-online","note":"Conceptual IoT mesh. Not a live county feed."},"geometry":{"type":"Point","coordinates":[-82.74312,27.875]}},{"type":"Feature","properties":{"name":"heat sensor \u00b7 Dunn WRF","kind":"heat","place":"Dunn WRF","layer":"iot","status":"demo-online","note":"Conceptual IoT mesh. Not a live county feed."},"geometry":{"type":"Point","coordinates":[-82.73949,28.07835]}},{"type":"Feature","properties":{"name":"air sensor \u00b7 Dunn WRF","kind":"air","place":"Dunn WRF","layer":"iot","status":"demo-online","note":"Conceptual IoT mesh. Not a live county feed."},"geometry":{"type":"Point","coordinates":[-82.7471,28.07249]}}]}