{"type":"FeatureCollection","name":"Plasma / blood-bank / data-broker nodes (concept)","note":"Civic participation layer only. Not medical advice, not a marketplace.","features":[{"type":"Feature","properties":{"name":"Johns Hopkins All Children\u2019s (civic node, concept)","kind":"hospital","layer":"plasma","note":"Conceptual participation pin only. Not a donation site listing or medical advice."},"geometry":{"type":"Point","coordinates":[-82.64,27.764]}},{"type":"Feature","properties":{"name":"Bayfront / downtown medical cluster (concept)","kind":"hospital","layer":"plasma"},"geometry":{"type":"Point","coordinates":[-82.641,27.766]}},{"type":"Feature","properties":{"name":"Morton Plant, Clearwater (concept)","kind":"hospital","layer":"plasma"},"geometry":{"type":"Point","coordinates":[-82.8,27.973]}},{"type":"Feature","properties":{"name":"Mease Dunedin (concept)","kind":"hospital","layer":"plasma"},"geometry":{"type":"Point","coordinates":[-82.775,28.017]}},{"type":"Feature","properties":{"name":"Largo medical cluster (concept)","kind":"hospital","layer":"plasma"},"geometry":{"type":"Point","coordinates":[-82.782,27.893]}},{"type":"Feature","properties":{"name":"Northside / 34th St medical (concept)","kind":"hospital","layer":"plasma"},"geometry":{"type":"Point","coordinates":[-82.685,27.821]}},{"type":"Feature","properties":{"name":"Palm Harbor civic collection node (concept)","kind":"civic","layer":"plasma"},"geometry":{"type":"Point","coordinates":[-82.76,28.08]}},{"type":"Feature","properties":{"name":"Gateway logistics / data-broker node (concept)","kind":"broker","layer":"plasma"},"geometry":{"type":"Point","coordinates":[-82.68,27.89]}}]}