{"type":"FeatureCollection","name":"Power grid (schematic)","note":"Duke Energy Florida is the investor-owned utility in this territory. Lines are conceptual.","features":[{"type":"Feature","properties":{"name":"US 19 transmission corridor (conceptual)","owner":"Duke Energy Florida (territory)","layer":"power"},"geometry":{"type":"LineString","coordinates":[[-82.73,28.16],[-82.73,28.08],[-82.73,27.97],[-82.73,27.88],[-82.7,27.8],[-82.68,27.73]]}},{"type":"Feature","properties":{"name":"I-275 / Gandy corridor (conceptual)","layer":"power"},"geometry":{"type":"LineString","coordinates":[[-82.6,27.93],[-82.64,27.89],[-82.66,27.82],[-82.65,27.77],[-82.66,27.7]]}},{"type":"Feature","properties":{"name":"Ulmerton / Roosevelt east-west (conceptual)","layer":"power"},"geometry":{"type":"LineString","coordinates":[[-82.83,27.9],[-82.78,27.9],[-82.73,27.895],[-82.68,27.89],[-82.62,27.89]]}},{"type":"Feature","properties":{"name":"North county substation (concept)","layer":"power"},"geometry":{"type":"Point","coordinates":[-82.73,28.08]}},{"type":"Feature","properties":{"name":"Clearwater substation (concept)","layer":"power"},"geometry":{"type":"Point","coordinates":[-82.75,27.97]}},{"type":"Feature","properties":{"name":"Gateway / Gandy substation (concept)","layer":"power"},"geometry":{"type":"Point","coordinates":[-82.67,27.89]}},{"type":"Feature","properties":{"name":"Downtown St. Pete substation (concept)","layer":"power"},"geometry":{"type":"Point","coordinates":[-82.64,27.77]}},{"type":"Feature","properties":{"name":"Beaches feeder (concept)","layer":"power"},"geometry":{"type":"Point","coordinates":[-82.8,27.8]}},{"type":"Feature","properties":{"name":"PSTA electric-bus charging (Duke Energy agreement, 2022)","layer":"power","note":"PSTA approved a 10-year agreement with Duke Energy Sustainable Solutions for electric bus charging infrastructure."},"geometry":{"type":"Point","coordinates":[-82.66,27.768]}}]}