{"type":"FeatureCollection","name":"Sewage / water reclamation (schematic)","note":"Based on PLANPinellas / PCU roles, not as-built GIS.","features":[{"type":"Feature","properties":{"name":"St. Petersburg collection trunk (conceptual)","layer":"sewage","to":"St. Petersburg Northwest WWTP (concept pin)","disclaimer":"Schematic, not as-built utility mapping."},"geometry":{"type":"LineString","coordinates":[[-82.67411,27.81449],[-82.68555,27.81974],[-82.705,27.825]]}},{"type":"Feature","properties":{"name":"Gulfport collection trunk (conceptual)","layer":"sewage","to":"St. Petersburg Northwest WWTP (concept pin)","disclaimer":"Schematic, not as-built utility mapping."},"geometry":{"type":"LineString","coordinates":[[-82.71349,27.75205],[-82.70524,27.78852],[-82.705,27.825]]}},{"type":"Feature","properties":{"name":"South Pasadena collection trunk (conceptual)","layer":"sewage","to":"St. Petersburg Northwest WWTP (concept pin)","disclaimer":"Schematic, not as-built utility mapping."},"geometry":{"type":"LineString","coordinates":[[-82.73901,27.7577],[-82.718,27.79135],[-82.705,27.825]]}},{"type":"Feature","properties":{"name":"St. Pete Beach collection trunk (conceptual)","layer":"sewage","to":"St. Petersburg Northwest WWTP (concept pin)","disclaimer":"Schematic, not as-built utility mapping."},"geometry":{"type":"LineString","coordinates":[[-82.7467,27.73536],[-82.72185,27.78018],[-82.705,27.825]]}},{"type":"Feature","properties":{"name":"Treasure Island collection trunk (conceptual)","layer":"sewage","to":"St. Petersburg Northwest WWTP (concept pin)","disclaimer":"Schematic, not as-built utility mapping."},"geometry":{"type":"LineString","coordinates":[[-82.76478,27.76193],[-82.73089,27.79346],[-82.705,27.825]]}},{"type":"Feature","properties":{"name":"Pinellas Park collection trunk (conceptual)","layer":"sewage","to":"South Cross Bayou Advanced WRF","disclaimer":"Schematic, not as-built utility mapping."},"geometry":{"type":"LineString","coordinates":[[-82.71953,27.86383],[-82.73327,27.86791],[-82.755,27.872]]}},{"type":"Feature","properties":{"name":"Seminole collection trunk (conceptual)","layer":"sewage","to":"South Cross Bayou Advanced WRF","disclaimer":"Schematic, not as-built utility mapping."},"geometry":{"type":"LineString","coordinates":[[-82.78135,27.84168],[-82.76417,27.85684],[-82.755,27.872]]}},{"type":"Feature","properties":{"name":"Kenneth City collection trunk (conceptual)","layer":"sewage","to":"South Cross Bayou Advanced WRF","disclaimer":"Schematic, not as-built utility mapping."},"geometry":{"type":"LineString","coordinates":[[-82.71777,27.81424],[-82.73238,27.84312],[-82.755,27.872]]}},{"type":"Feature","properties":{"name":"Largo collection trunk (conceptual)","layer":"sewage","to":"Largo WRF (concept pin)","disclaimer":"Schematic, not as-built utility mapping."},"geometry":{"type":"LineString","coordinates":[[-82.75311,27.91216],[-82.76606,27.90858],[-82.787,27.905]]}},{"type":"Feature","properties":{"name":"Madeira Beach collection trunk (conceptual)","layer":"sewage","to":"South Cross Bayou Advanced WRF","disclaimer":"Schematic, not as-built utility mapping."},"geometry":{"type":"LineString","coordinates":[[-82.79345,27.80384],[-82.77022,27.83792],[-82.755,27.872]]}},{"type":"Feature","properties":{"name":"Redington Beach collection trunk (conceptual)","layer":"sewage","to":"South Cross Bayou Advanced WRF","disclaimer":"Schematic, not as-built utility mapping."},"geometry":{"type":"LineString","coordinates":[[-82.81226,27.81093],[-82.77963,27.84146],[-82.755,27.872]]}},{"type":"Feature","properties":{"name":"North Redington Beach collection trunk (conceptual)","layer":"sewage","to":"South Cross Bayou Advanced WRF","disclaimer":"Schematic, not as-built utility mapping."},"geometry":{"type":"LineString","coordinates":[[-82.82463,27.82076],[-82.78581,27.84638],[-82.755,27.872]]}},{"type":"Feature","properties":{"name":"Redington Shores collection trunk (conceptual)","layer":"sewage","to":"South Cross Bayou Advanced WRF","disclaimer":"Schematic, not as-built utility mapping."},"geometry":{"type":"LineString","coordinates":[[-82.82989,27.82965],[-82.78844,27.85083],[-82.755,27.872]]}},{"type":"Feature","properties":{"name":"Indian Shores collection trunk (conceptual)","layer":"sewage","to":"South Cross Bayou Advanced WRF","disclaimer":"Schematic, not as-built utility mapping."},"geometry":{"type":"LineString","coordinates":[[-82.84336,27.85323],[-82.79518,27.86261],[-82.755,27.872]]}},{"type":"Feature","properties":{"name":"Indian Rocks Beach collection trunk (conceptual)","layer":"sewage","to":"South Cross Bayou Advanced WRF","disclaimer":"Schematic, not as-built utility mapping."},"geometry":{"type":"LineString","coordinates":[[-82.84709,27.89184],[-82.79704,27.88192],[-82.755,27.872]]}},{"type":"Feature","properties":{"name":"Belleair collection trunk (conceptual)","layer":"sewage","to":"South Cross Bayou Advanced WRF","disclaimer":"Schematic, not as-built utility mapping."},"geometry":{"type":"LineString","coordinates":[[-82.80801,27.93447],[-82.7775,27.90324],[-82.755,27.872]]}},{"type":"Feature","properties":{"name":"Belleair Bluffs collection trunk (conceptual)","layer":"sewage","to":"South Cross Bayou Advanced WRF","disclaimer":"Schematic, not as-built utility mapping."},"geometry":{"type":"LineString","coordinates":[[-82.81714,27.91871],[-82.78207,27.89536],[-82.755,27.872]]}},{"type":"Feature","properties":{"name":"Belleair Beach collection trunk (conceptual)","layer":"sewage","to":"South Cross Bayou Advanced WRF","disclaimer":"Schematic, not as-built utility mapping."},"geometry":{"type":"LineString","coordinates":[[-82.84012,27.92388],[-82.79356,27.89794],[-82.755,27.872]]}},{"type":"Feature","properties":{"name":"Belleair Shore collection trunk (conceptual)","layer":"sewage","to":"South Cross Bayou Advanced WRF","disclaimer":"Schematic, not as-built utility mapping."},"geometry":{"type":"LineString","coordinates":[[-82.84608,27.916],[-82.79654,27.894],[-82.755,27.872]]}},{"type":"Feature","properties":{"name":"Clearwater collection trunk (conceptual)","layer":"sewage","to":"Clearwater water reclamation (concept pin)","disclaimer":"Schematic, not as-built utility mapping."},"geometry":{"type":"LineString","coordinates":[[-82.74463,27.9779],[-82.75432,27.97995],[-82.772,27.982]]}},{"type":"Feature","properties":{"name":"Safety Harbor collection trunk (conceptual)","layer":"sewage","to":"Clearwater water reclamation (concept pin)","disclaimer":"Schematic, not as-built utility mapping."},"geometry":{"type":"LineString","coordinates":[[-82.69459,28.00508],[-82.72929,27.99354],[-82.772,27.982]]}},{"type":"Feature","properties":{"name":"Dunedin collection trunk (conceptual)","layer":"sewage","to":"Dunedin WRF (concept pin)","disclaimer":"Schematic, not as-built utility mapping."},"geometry":{"type":"LineString","coordinates":[[-82.7662,28.03161],[-82.7646,28.0268],[-82.771,28.022]]}},{"type":"Feature","properties":{"name":"Tarpon Springs collection trunk (conceptual)","layer":"sewage","to":"William E. Dunn Advanced WRF","disclaimer":"Schematic, not as-built utility mapping."},"geometry":{"type":"LineString","coordinates":[[-82.75035,28.15067],[-82.74017,28.11434],[-82.738,28.078]]}},{"type":"Feature","properties":{"name":"Oldsmar collection trunk (conceptual)","layer":"sewage","to":"William E. Dunn Advanced WRF","disclaimer":"Schematic, not as-built utility mapping."},"geometry":{"type":"LineString","coordinates":[[-82.67833,28.04084],[-82.70417,28.05942],[-82.738,28.078]]}},{"type":"Feature","properties":{"id":"south-cross-bayou","name":"South Cross Bayou Advanced WRF","kind":"wastewater","lng":-82.755,"lat":27.872,"note":"County south sewer system treatment (Pinellas County Utilities). Location approximate.","layer":"sewage"},"geometry":{"type":"Point","coordinates":[-82.755,27.872]}},{"type":"Feature","properties":{"id":"dunn-wrf","name":"William E. Dunn Advanced WRF","kind":"wastewater","lng":-82.738,"lat":28.078,"note":"County north sewer system treatment (Pinellas County Utilities). Location approximate.","layer":"sewage"},"geometry":{"type":"Point","coordinates":[-82.738,28.078]}},{"type":"Feature","properties":{"id":"stpete-nw","name":"St. Petersburg Northwest WWTP (concept pin)","kind":"wastewater","lng":-82.705,"lat":27.825,"note":"City of St. Petersburg treats some municipal and Bear Creek flows. Pin is conceptual.","layer":"sewage"},"geometry":{"type":"Point","coordinates":[-82.705,27.825]}},{"type":"Feature","properties":{"id":"clearwater-marshall","name":"Clearwater water reclamation (concept pin)","kind":"wastewater","lng":-82.772,"lat":27.982,"note":"City of Clearwater operates its own system and treats Safety Harbor wastewater. Pin is conceptual.","layer":"sewage"},"geometry":{"type":"Point","coordinates":[-82.772,27.982]}},{"type":"Feature","properties":{"id":"largo-wrf","name":"Largo WRF (concept pin)","kind":"wastewater","lng":-82.787,"lat":27.905,"note":"City of Largo operates its own wastewater collection. Pin is conceptual.","layer":"sewage"},"geometry":{"type":"Point","coordinates":[-82.787,27.905]}},{"type":"Feature","properties":{"id":"dunedin-wrf","name":"Dunedin WRF (concept pin)","kind":"wastewater","lng":-82.771,"lat":28.022,"note":"City of Dunedin operates its own wastewater system. Pin is conceptual.","layer":"sewage"},"geometry":{"type":"Point","coordinates":[-82.771,28.022]}}]}