{"type":"FeatureCollection","name":"Transit (SunRunner schematic + conceptual trunks)","note":"","features":[{"type":"Feature","properties":{"name":"PSTA SunRunner BRT","layer":"transit","real":true,"note":"Tampa Bay\u2019s first BRT: ~10 miles, St. Pete Beach to downtown St. Petersburg. Service began Oct 21, 2022. Route is schematic."},"geometry":{"type":"LineString","coordinates":[[-82.748,27.725],[-82.747,27.735],[-82.742,27.748],[-82.739,27.753],[-82.72,27.762],[-82.695,27.768],[-82.679,27.771],[-82.653,27.768],[-82.64,27.771],[-82.632,27.77]]}},{"type":"Feature","properties":{"name":"US 19 / 34th St transit spine (conceptual trunk)","layer":"transit"},"geometry":{"type":"LineString","coordinates":[[-82.756,28.146],[-82.747,28.08],[-82.79,28.02],[-82.73,27.97],[-82.73,27.91],[-82.73,27.84],[-82.698,27.8],[-82.679,27.77]]}},{"type":"Feature","properties":{"name":"Gulf Boulevard beach connector (conceptual)","layer":"transit"},"geometry":{"type":"LineString","coordinates":[[-82.828,27.978],[-82.841,27.95],[-82.843,27.92],[-82.847,27.89],[-82.843,27.85],[-82.829,27.83],[-82.797,27.8],[-82.769,27.77],[-82.747,27.73]]}},{"type":"Feature","properties":{"name":"Pinellas Trail (multi-use, schematic)","layer":"transit","note":"County rail-trail; not a bus route. Shown as a mobility layer."},"geometry":{"type":"LineString","coordinates":[[-82.756,28.146],[-82.771,28.02],[-82.8,27.965],[-82.787,27.91],[-82.791,27.84],[-82.7,27.79],[-82.66,27.77]]}},{"type":"Feature","properties":{"name":"SunRunner \u00b7 Downtown St. Petersburg","kind":"brt-stop","layer":"transit"},"geometry":{"type":"Point","coordinates":[-82.638,27.771]}},{"type":"Feature","properties":{"name":"SunRunner \u00b7 Tropicana / Edge district","kind":"brt-stop","layer":"transit"},"geometry":{"type":"Point","coordinates":[-82.653,27.768]}},{"type":"Feature","properties":{"name":"SunRunner \u00b7 South Pasadena","kind":"brt-stop","layer":"transit"},"geometry":{"type":"Point","coordinates":[-82.739,27.753]}},{"type":"Feature","properties":{"name":"SunRunner \u00b7 St. Pete Beach","kind":"brt-stop","layer":"transit"},"geometry":{"type":"Point","coordinates":[-82.748,27.725]}},{"type":"Feature","properties":{"name":"PSTA Park Street terminal (concept)","kind":"hub","layer":"transit"},"geometry":{"type":"Point","coordinates":[-82.642,27.772]}},{"type":"Feature","properties":{"name":"Clearwater downtown transit (concept)","kind":"hub","layer":"transit"},"geometry":{"type":"Point","coordinates":[-82.8,27.966]}},{"type":"Feature","properties":{"name":"Tarpon Springs sponge docks (concept stop)","kind":"hub","layer":"transit"},"geometry":{"type":"Point","coordinates":[-82.759,28.156]}}]}