{"type":"FeatureCollection","name":"Weighted voting / civic ledger nodes (concept)","note":"","features":[{"type":"Feature","properties":{"name":"Voting / civic ledger node \u00b7 St. Petersburg","layer":"voting","weight_model":"residency + opt-in civic data (DEMO)","note":"Weighted voting concept: proven residency and consented city data, not wealth. DEMO only."},"geometry":{"type":"Point","coordinates":[-82.64,27.771]}},{"type":"Feature","properties":{"name":"Voting / civic ledger node \u00b7 Clearwater","layer":"voting","weight_model":"residency + opt-in civic data (DEMO)","note":"Weighted voting concept: proven residency and consented city data, not wealth. DEMO only."},"geometry":{"type":"Point","coordinates":[-82.8,27.965]}},{"type":"Feature","properties":{"name":"Voting / civic ledger node \u00b7 Largo","layer":"voting","weight_model":"residency + opt-in civic data (DEMO)","note":"Weighted voting concept: proven residency and consented city data, not wealth. DEMO only."},"geometry":{"type":"Point","coordinates":[-82.787,27.909]}},{"type":"Feature","properties":{"name":"Voting / civic ledger node \u00b7 Pinellas Park","layer":"voting","weight_model":"residency + opt-in civic data (DEMO)","note":"Weighted voting concept: proven residency and consented city data, not wealth. DEMO only."},"geometry":{"type":"Point","coordinates":[-82.7,27.843]}},{"type":"Feature","properties":{"name":"Voting / civic ledger node \u00b7 Dunedin","layer":"voting","weight_model":"residency + opt-in civic data (DEMO)","note":"Weighted voting concept: proven residency and consented city data, not wealth. DEMO only."},"geometry":{"type":"Point","coordinates":[-82.772,28.02]}},{"type":"Feature","properties":{"name":"Voting / civic ledger node \u00b7 Tarpon Springs","layer":"voting","weight_model":"residency + opt-in civic data (DEMO)","note":"Weighted voting concept: proven residency and consented city data, not wealth. DEMO only."},"geometry":{"type":"Point","coordinates":[-82.757,28.146]}},{"type":"Feature","properties":{"name":"Voting / civic ledger node \u00b7 Seminole","layer":"voting","weight_model":"residency + opt-in civic data (DEMO)","note":"Weighted voting concept: proven residency and consented city data, not wealth. DEMO only."},"geometry":{"type":"Point","coordinates":[-82.791,27.84]}},{"type":"Feature","properties":{"name":"Voting / civic ledger node \u00b7 Safety Harbor","layer":"voting","weight_model":"residency + opt-in civic data (DEMO)","note":"Weighted voting concept: proven residency and consented city data, not wealth. DEMO only."},"geometry":{"type":"Point","coordinates":[-82.693,27.991]}},{"type":"Feature","properties":{"name":"Voting / civic ledger node \u00b7 Oldsmar","layer":"voting","weight_model":"residency + opt-in civic data (DEMO)","note":"Weighted voting concept: proven residency and consented city data, not wealth. DEMO only."},"geometry":{"type":"Point","coordinates":[-82.665,28.034]}},{"type":"Feature","properties":{"name":"Voting / civic ledger node \u00b7 Gulfport","layer":"voting","weight_model":"residency + opt-in civic data (DEMO)","note":"Weighted voting concept: proven residency and consented city data, not wealth. DEMO only."},"geometry":{"type":"Point","coordinates":[-82.704,27.748]}},{"type":"Feature","properties":{"name":"Voting / civic ledger node \u00b7 St. Pete Beach","layer":"voting","weight_model":"residency + opt-in civic data (DEMO)","note":"Weighted voting concept: proven residency and consented city data, not wealth. DEMO only."},"geometry":{"type":"Point","coordinates":[-82.741,27.725]}},{"type":"Feature","properties":{"name":"Voting / civic ledger node \u00b7 Treasure Island","layer":"voting","weight_model":"residency + opt-in civic data (DEMO)","note":"Weighted voting concept: proven residency and consented city data, not wealth. DEMO only."},"geometry":{"type":"Point","coordinates":[-82.769,27.769]}},{"type":"Feature","properties":{"name":"Pinellas County Supervisor of Elections (concept pin)","layer":"voting"},"geometry":{"type":"Point","coordinates":[-82.8,27.961]}}]}