{"type":"FeatureCollection","name":"Potable and reclaimed water (schematic)","note":"Tampa Bay Water wholesale + municipal distribution concept.","features":[{"type":"Feature","properties":{"name":"Tampa Bay Water regional feed (conceptual)","layer":"water","note":"Tampa Bay Water is the regional wholesale supplier to Pinellas member governments."},"geometry":{"type":"LineString","coordinates":[[-82.58,27.97],[-82.62,27.968],[-82.68,27.965],[-82.73,27.96]]}},{"type":"Feature","properties":{"name":"North county potable spine (conceptual)","layer":"water"},"geometry":{"type":"LineString","coordinates":[[-82.73,27.96],[-82.74,28.02],[-82.75,28.08],[-82.75,28.15]]}},{"type":"Feature","properties":{"name":"Central / south potable spine (conceptual)","layer":"water"},"geometry":{"type":"LineString","coordinates":[[-82.73,27.96],[-82.73,27.91],[-82.73,27.86],[-82.7,27.81],[-82.67,27.77],[-82.65,27.73]]}},{"type":"Feature","properties":{"name":"Beach reclaimed-water concept (PCU reclaimed along barrier islands)","layer":"water","note":"Pinellas County Utilities provides reclaimed water in many beach communities."},"geometry":{"type":"LineString","coordinates":[[-82.84,27.98],[-82.845,27.92],[-82.847,27.89],[-82.843,27.85],[-82.83,27.82],[-82.8,27.8],[-82.77,27.76],[-82.75,27.73]]}},{"type":"Feature","properties":{"name":"Tampa Bay Water interconnection (concept)","kind":"wholesale","layer":"water","lng":-82.62,"lat":27.968},"geometry":{"type":"Point","coordinates":[-82.62,27.968]}},{"type":"Feature","properties":{"name":"St. Petersburg distribution hub (concept)","kind":"retail","layer":"water"},"geometry":{"type":"Point","coordinates":[-82.65,27.77]}},{"type":"Feature","properties":{"name":"Clearwater distribution hub (concept)","kind":"retail","layer":"water"},"geometry":{"type":"Point","coordinates":[-82.8,27.965]}}]}