{"type":"FeatureCollection","name":"Pinellas County, Florida (US Census TIGERweb)","features":[{"type":"Feature","properties":{"name":"Pinellas County","geoid":"12103"},"geometry":{"type":"Polygon","coordinates":[[[-83.01875,28.17098],[-83.01751,28.16148],[-83.01463,28.14376],[-83.01382,28.13946],[-83.01251,28.13374],[-83.0128,28.12924],[-83.01311,28.12326],[-83.01316,28.11817],[-83.01293,28.11146],[-83.0123,28.10422],[-83.0112,28.09665],[-83.01021,28.09146],[-83.0095,28.08707],[-83.00953,28.08132],[-83.00941,28.07515],[-83.00875,28.06645],[-83.00753,28.0578],[-83.00608,28.05066],[-83.00466,28.04504],[-83.00242,28.03774],[-83.00052,28.03126],[-82.99924,28.02687],[-82.99937,28.0209],[-82.99929,28.0162],[-82.99746,28.01275],[-82.99757,28.00569],[-82.99845,27.99026],[-83.00034,27.98569],[-83.00242,27.98002],[-83.00419,27.97447],[-83.0067,27.9653],[-83.00949,27.95484],[-83.01078,27.94928],[-83.01361,27.93576],[-83.0144,27.93165],[-83.01605,27.92158],[-83.01853,27.90627],[-83.01905,27.90271],[-83.01952,27.89878],[-83.01998,27.89341],[-83.02034,27.88701],[-83.02047,27.88411],[-83.02054,27.87831],[-83.02033,27.87405],[-83.01908,27.85806],[-83.01874,27.85446],[-83.01795,27.84836],[-83.01681,27.84193],[-83.01512,27.83446],[-83.01181,27.82055],[-83.01044,27.81564],[-83.00798,27.80817],[-83.00329,27.79681],[-82.99668,27.78311],[-82.99389,27.77767],[-82.9899,27.77073],[-82.98703,27.76622],[-82.97949,27.75411],[-82.97529,27.74726],[-82.96981,27.73942],[-82.96219,27.73002],[-82.95688,27.72429],[-82.94821,27.7154],[-82.93698,27.70561],[-82.93174,27.70117],[-82.9258,27.69655],[-82.92309,27.69393],[-82.9205,27.6905],[-82.9179,27.68728],[-82.91633,27.68541],[-82.91521,27.68327],[-82.91552,27.67931],[-82.91593,27.67538],[-82.9162,27.6718],[-82.91691,27.66606],[-82.91739,27.66282],[-82.91986,27.65771],[-82.92364,27.6487],[-82.74821,27.64878],[-82.74576,27.64879],[-82.74575,27.64813],[-82.74559,27.64756],[-82.74434,27.64444],[-82.74334,27.64129],[-82.74263,27.6388],[-82.74194,27.63551],[-82.74147,27.63305],[-82.74012,27.62604],[-82.73985,27.625],[-82.73834,27.61812],[-82.73846,27.61502],[-82.73852,27.61373],[-82.7383,27.61253],[-82.73779,27.61168],[-82.73647,27.61085],[-82.7358,27.61063],[-82.73521,27.6105],[-82.73438,27.61069],[-82.73233,27.61192],[-82.71859,27.61823],[-82.71224,27.62108],[-82.7102,27.62212],[-82.70715,27.62323],[-82.70544,27.62392],[-82.7041,27.62459],[-82.70328,27.62524],[-82.70221,27.62618],[-82.70149,27.62701],[-82.70099,27.62762],[-82.70067,27.62818],[-82.70056,27.6285],[-82.70038,27.62962],[-82.70019,27.63091],[-82.69985,27.63176],[-82.69951,27.63254],[-82.69947,27.63294],[-82.69949,27.63339],[-82.69939,27.63372],[-82.69848,27.63585],[-82.69826,27.63606],[-82.69782,27.6365],[-82.69691,27.63839],[-82.69669,27.63893],[-82.69673,27.64497],[-82.68043,27.64914],[-82.67621,27.64914],[-82.67519,27.64915],[-82.67464,27.64915],[-82.66313,27.64923],[-82.6042,27.67342],[-82.58503,27.69443],[-82.5811,27.69992],[-82.57635,27.70776],[-82.57257,27.71558],[-82.56992,27.72267],[-82.56792,27.72834],[-82.56587,27.73594],[-82.56446,27.74314],[-82.56326,27.75034],[-82.56191,27.76236],[-82.56146,27.7709],[-82.56151,27.78695],[-82.56183,27.79232],[-82.56223,27.79749],[-82.56303,27.80574],[-82.5639,27.81337],[-82.56517,27.82346],[-82.56946,27.85765],[-82.57256,27.88226],[-82.5736,27.88842],[-82.57603,27.90039],[-82.57878,27.91038],[-82.58218,27.91974],[-82.58469,27.92486],[-82.58664,27.92794],[-82.58699,27.92844],[-82.58809,27.92971],[-82.58956,27.93122],[-82.59175,27.93321],[-82.5948,27.93569],[-82.59765,27.93782],[-82.60103,27.94014],[-82.6054,27.94276],[-82.60918,27.94479],[-82.6119,27.94604],[-82.61499,27.94725],[-82.61948,27.94872],[-82.62618,27.95052],[-82.63327,27.95208],[-82.63851,27.95304],[-82.64772,27.95435],[-82.6479,27.96644],[-82.64791,27.96719],[-82.6481,27.97916],[-82.64846,28.00238],[-82.64856,28.01263],[-82.64855,28.01413],[-82.64854,28.0148],[-82.64854,28.01559],[-82.64853,28.01624],[-82.64853,28.01641],[-82.64852,28.01704],[-82.64852,28.01769],[-82.64852,28.01781],[-82.64853,28.01814],[-82.64852,28.01881],[-82.64851,28.02113],[-82.64851,28.0218],[-82.64851,28.02263],[-82.64851,28.02313],[-82.64852,28.02423],[-82.64853,28.02568],[-82.64852,28.0265],[-82.64851,28.02677],[-82.64852,28.0288],[-82.64854,28.03016],[-82.64854,28.03043],[-82.64856,28.03132],[-82.64856,28.03195],[-82.64857,28.03313],[-82.64857,28.03341],[-82.64856,28.03778],[-82.64856,28.0385],[-82.64856,28.03865],[-82.64854,28.04078],[-82.64853,28.04211],[-82.64854,28.04485],[-82.64854,28.04597],[-82.64854,28.04624],[-82.64854,28.04689],[-82.64854,28.04848],[-82.64857,28.0558],[-82.64857,28.05632],[-82.64858,28.05937],[-82.64858,28.06003],[-82.64862,28.07054],[-82.64869,28.07841],[-82.64875,28.08574],[-82.64885,28.08854],[-82.64901,28.09297],[-82.64914,28.09853],[-82.64916,28.09913],[-82.64957,28.11162],[-82.64972,28.11606],[-82.64974,28.1168],[-82.64978,28.11797],[-82.64978,28.11805],[-82.64978,28.11813],[-82.64979,28.11843],[-82.64979,28.11846],[-82.6498,28.11887],[-82.64982,28.11963],[-82.64987,28.12091],[-82.64989,28.12117],[-82.6499,28.12166],[-82.6499,28.12201],[-82.65019,28.13104],[-82.65019,28.1368],[-82.65023,28.14485],[-82.65075,28.15883],[-82.65112,28.1688],[-82.6512,28.17097],[-82.65408,28.17328],[-82.66923,28.17333],[-82.67235,28.17332],[-82.67321,28.17331],[-82.67445,28.17331],[-82.68124,28.17329],[-82.69405,28.17326],[-82.70485,28.17324],[-82.71105,28.17322],[-82.71158,28.17321],[-82.7146,28.17319],[-82.71807,28.17317],[-82.71834,28.17316],[-82.71862,28.17316],[-82.7189,28.17316],[-82.71963,28.17317],[-82.72004,28.17318],[-82.72052,28.17321],[-82.72087,28.17321],[-82.72162,28.17316],[-82.72174,28.17317],[-82.72186,28.17319],[-82.72197,28.1732],[-82.72208,28.17321],[-82.72249,28.17318],[-82.72264,28.17317],[-82.72278,28.17316],[-82.72285,28.17316],[-82.72294,28.17316],[-82.72314,28.17317],[-82.72386,28.1732],[-82.72404,28.17322],[-82.72411,28.17322],[-82.72421,28.17322],[-82.7243,28.17322],[-82.72525,28.17321],[-82.72909,28.17317],[-82.72932,28.17326],[-82.73072,28.1733],[-82.73169,28.1733],[-82.73312,28.17329],[-82.73393,28.17331],[-82.73851,28.17333],[-82.7404,28.17331],[-82.74251,28.17322],[-82.74338,28.17322],[-82.74406,28.17322],[-82.74819,28.1732],[-82.7488,28.1732],[-82.74898,28.1732],[-82.7502,28.17276],[-82.75049,28.17301],[-82.7529,28.17299],[-82.75772,28.17294],[-82.75868,28.17293],[-82.75992,28.17292],[-82.76122,28.17291],[-82.76245,28.1729],[-82.76397,28.17289],[-82.76448,28.17289],[-82.76532,28.17289],[-82.76552,28.17289],[-82.76774,28.17288],[-82.77337,28.17288],[-82.77681,28.17287],[-82.77834,28.17287],[-82.77905,28.17285],[-82.77983,28.17286],[-82.78138,28.17285],[-82.78298,28.17286],[-82.78372,28.17286],[-82.78549,28.17257],[-82.78604,28.17294],[-82.7894,28.17291],[-82.79008,28.17291],[-82.79804,28.17312],[-82.80073,28.17311],[-82.8055,28.17307],[-82.81512,28.17302],[-82.83331,28.17188],[-82.84458,28.17171],[-82.84713,28.17169],[-82.84868,28.1718],[-82.8514,28.17214],[-82.85465,28.17223],[-82.87046,28.17205],[-82.875,28.17205],[-82.87502,28.17227],[-82.89333,28.17208],[-82.90648,28.17196],[-83.01875,28.17098]]]}}]}