{"type":"FeatureCollection","name":"Unincorporated community labels","note":"","features":[{"type":"Feature","properties":{"name":"Palm Harbor (unincorporated)","kind":"unincorporated"},"geometry":{"type":"Point","coordinates":[-82.76,28.078]}},{"type":"Feature","properties":{"name":"East Lake (unincorporated)","kind":"unincorporated"},"geometry":{"type":"Point","coordinates":[-82.7,28.105]}},{"type":"Feature","properties":{"name":"Lealman (unincorporated)","kind":"unincorporated"},"geometry":{"type":"Point","coordinates":[-82.679,27.819]}},{"type":"Feature","properties":{"name":"Highpoint (unincorporated)","kind":"unincorporated"},"geometry":{"type":"Point","coordinates":[-82.71,27.912]}},{"type":"Feature","properties":{"name":"Gandy / Gateway (unincorporated edge)","kind":"unincorporated"},"geometry":{"type":"Point","coordinates":[-82.625,27.89]}},{"type":"Feature","properties":{"name":"Tierra Verde (unincorporated)","kind":"unincorporated"},"geometry":{"type":"Point","coordinates":[-82.724,27.671]}}]}